[{"OBJECT_NAME":"ONEWEB-0151","OBJECT_ID":"2021-025AA","EPOCH":"2026-03-09T19:30:47.900160","MEAN_MOTION":13.13469771,"ECCENTRICITY":0.00018127,"INCLINATION":87.9037,"RA_OF_ASC_NODE":339.9892,"ARG_OF_PERICENTER":81.8028,"MEAN_ANOMALY":278.3307,"EPHEMERIS_TYPE":0,"CLASSIFICATION_TYPE":"U","NORAD_CAT_ID":48066,"ELEMENT_SET_NO":999,"REV_AT_EPOCH":24054,"BSTAR":0.00094826988,"MEAN_MOTION_DOT":3.59e-6,"MEAN_MOTION_DDOT":0},{"OBJECT_NAME":"OPS 4682 DEB","OBJECT_ID":"1965-027EA","EPOCH":"2026-03-09T06:39:30.300192","MEAN_MOTION":13.09775262,"ECCENTRICITY":0.00364172,"INCLINATION":90.2605,"RA_OF_ASC_NODE":6.5806,"ARG_OF_PERICENTER":196.1057,"MEAN_ANOMALY":163.8916,"EPHEMERIS_TYPE":0,"CLASSIFICATION_TYPE":"U","NORAD_CAT_ID":38421,"ELEMENT_SET_NO":999,"REV_AT_EPOCH":65554,"BSTAR":0.0020169417,"MEAN_MOTION_DOT":7.08e-6,"MEAN_MOTION_DDOT":0}]
